CTC2_L_00006016-03
1 46371U 25910TP  26037.47790509  .00000000  00000+0  00000-0 0  9996
2 46371  40.0000 180.0000 0000000   0.0000   0.0000 15.80155563    16
CTC2_L_00006016-04
1 46372U 26481UK  26037.47790509  .00000000  00000+0  00000-0 0  9991
2 46372  40.0000 180.0000 0000000   0.0000  90.0000 15.80155563    16
CTC2_L_00006017-01
1 46373U 22468YV  26037.47790509  .00000000  00000+0  00000-0 0  9993
2 46373  40.0000 192.0000 0000000   0.0000 192.0000 15.80155563    13
CTC2_L_00006017-02
1 46374U 23307CA  26037.47790509  .00000000  00000+0  00000-0 0  9997
2 46374  40.0000 192.0000 0000000   0.0000 282.0000 15.80155563    14
CTC2_L_00006017-03
1 46375U 22900OE  26037.47790509  .00000000  00000+0  00000-0 0  9996
2 46375  40.0000 192.0000 0000000   0.0000  12.0000 15.80155563    16
CTC2_L_00006017-04
1 46376U 23595QB  26037.47790509  .00000000  00000+0  00000-0 0  9998
2 46376  40.0000 192.0000 0000000   0.0000 102.0000 15.80155563    17
CTC2_L_00006018-01
1 46377U 22271ZW  26037.47790509  .00000000  00000+0  00000-0 0  9999
2 46377  40.0000 204.0000 0000000   0.0000 204.0000 15.80155563    15
CTC2_L_00006018-02
1 46378U 22145ZZ  26037.47790509  .00000000  00000+0  00000-0 0  9990
2 46378  40.0000 204.0000 0000000   0.0000 294.0000 15.80155563    15
CTC2_L_00006018-03
1 46379U 24839CU  26037.47790509  .00000000  00000+0  00000-0 0  9993
2 46379  40.0000 204.0000 0000000   0.0000  24.0000 15.80155563    17
CTC2_L_00006018-04
1 46380U 22679LZ  26037.47790509  .00000000  00000+0  00000-0 0  9995
2 46380  40.0000 204.0000 0000000   0.0000 114.0000 15.80155563    19
CTC2_L_00006019-01
1 46381U 25721HO  26037.47790509  .00000000  00000+0  00000-0 0  9997
2 46381  40.0000 216.0000 0000000   0.0000 216.0000 15.80155563    16
CTC2_L_00006019-02
1 46382U 23476OJ  26037.47790509  .00000000  00000+0  00000-0 0  9993
2 46382  40.0000 216.0000 0000000   0.0000 306.0000 15.80155563    17
CTC2_L_00006019-03
1 46383U 25871VP  26037.47790509  .00000000  00000+0  00000-0 0  9995
2 46383  40.0000 216.0000 0000000   0.0000  36.0000 15.80155563    18
CTC2_L_00006019-04
1 46384U 25958K   26037.47790509  .00000000  00000+0  00000-0 0  9992
2 46384  40.0000 216.0000 0000000   0.0000 126.0000 15.80155563    19
CTC2_L_00006020-01
1 46385U 24848PW  26037.47790509  .00000000  00000+0  00000-0 0  9990
2 46385  40.0000 228.0000 0000000   0.0000 228.0000 15.80155563    16
CTC2_L_00006020-02
1 46386U 25883GB  26037.47790509  .00000000  00000+0  00000-0 0  9991
2 46386  40.0000 228.0000 0000000   0.0000 318.0000 15.80155563    17
CTC2_L_00006020-03
1 46387U 26563YC  26037.47790509  .00000000  00000+0  00000-0 0  9998
2 46387  40.0000 228.0000 0000000   0.0000  48.0000 15.80155563    18
CTC2_L_00006020-04
1 46388U 24123PJ  26037.47790509  .00000000  00000+0  00000-0 0  9999
2 46388  40.0000 228.0000 0000000   0.0000 138.0000 15.80155563    19
CTC2_L_00006021-01
1 46389U 23061BN  26037.47790509  .00000000  00000+0  00000-0 0  9990
2 46389  40.0000 240.0000 0000000   0.0000 240.0000 15.80155563    18
CTC2_L_00006021-02
1 46390U 26409ZB  26037.47790509  .00000000  00000+0  00000-0 0  9991
2 46390  40.0000 240.0000 0000000   0.0000 330.0000 15.80155563    10
CTC2_L_00006021-03
1 46391U 25414GB  26037.47790509  .00000000  00000+0  00000-0 0  9997
2 46391  40.0000 240.0000 0000000   0.0000  60.0000 15.80155563    11
CTC2_L_00006021-04
1 46392U 22337AM  26037.47790509  .00000000  00000+0  00000-0 0  9999
2 46392  40.0000 240.0000 0000000   0.0000 150.0000 15.80155563    12
CTC2_L_00006022-01
1 46393U 25676LQ  26037.47790509  .00000000  00000+0  00000-0 0  9999
2 46393  40.0000 252.0000 0000000   0.0000 252.0000 15.80155563    19
CTC2_L_00006022-02
1 46394U 23488ZL  26037.47790509  .00000000  00000+0  00000-0 0  9999
2 46394  40.0000 252.0000 0000000   0.0000 342.0000 15.80155563    10
CTC2_L_00006022-03
1 46395U 25158OJ  26037.47790509  .00000000  00000+0  00000-0 0  9996
2 46395  40.0000 252.0000 0000000   0.0000  72.0000 15.80155563    11
CTC2_L_00006022-04
1 46396U 23790VC  26037.47790509  .00000000  00000+0  00000-0 0  9997
2 46396  40.0000 252.0000 0000000   0.0000 162.0000 15.80155563    12
CTC2_L_00006023-01
1 46397U 23016RP  26037.47790509  .00000000  00000+0  00000-0 0  9999
2 46397  40.0000 264.0000 0000000   0.0000 264.0000 15.80155563    19
CTC2_L_00006023-02
1 46398U 25120MZ  26037.47790509  .00000000  00000+0  00000-0 0  9998
2 46398  40.0000 264.0000 0000000   0.0000 354.0000 15.80155563    10
CTC2_L_00006023-03
1 46399U 24643IQ  26037.47790509  .00000000  00000+0  00000-0 0  9998
2 46399  40.0000 264.0000 0000000   0.0000  84.0000 15.80155563    11
CTC2_L_00006023-04
1 46400U 22138MG  26037.47790509  .00000000  00000+0  00000-0 0  9998
2 46400  40.0000 264.0000 0000000   0.0000 174.0000 15.80155563    14
CTC2_L_00006024-01
1 46401U 26713CO  26037.47790509  .00000000  00000+0  00000-0 0  9992
2 46401  40.0000 276.0000 0000000   0.0000 276.0000 15.80155563    11
CTC2_L_00006024-02
1 46402U 25572KR  26037.47790509  .00000000  00000+0  00000-0 0  9995
2 46402  40.0000 276.0000 0000000   0.0000   6.0000 15.80155563    13
CTC2_L_00006024-03
1 46403U 25049BI  26037.47790509  .00000000  00000+0  00000-0 0  9995
2 46403  40.0000 276.0000 0000000   0.0000  96.0000 15.80155563    13
CTC2_L_00006024-04
1 46404U 26829BA  26037.47790509  .00000000  00000+0  00000-0 0  9993
2 46404  40.0000 276.0000 0000000   0.0000 186.0000 15.80155563    14
CTC2_L_00006025-01
1 46405U 26549LF  26037.47790509  .00000000  00000+0  00000-0 0  9993
2 46405  40.0000 288.0000 0000000   0.0000 288.0000 15.80155563    11
CTC2_L_00006025-02
1 46406U 25193YB  26037.47790509  .00000000  00000+0  00000-0 0  9998
2 46406  40.0000 288.0000 0000000   0.0000  18.0000 15.80155563    13
CTC2_L_00006025-03
1 46407U 23757QZ  26037.47790509  .00000000  00000+0  00000-0 0  9993
2 46407  40.0000 288.0000 0000000   0.0000 108.0000 15.80155563    14
CTC2_L_00006025-04
1 46408U 26916AU  26037.47790509  .00000000  00000+0  00000-0 0  9994
2 46408  40.0000 288.0000 0000000   0.0000 198.0000 15.80155563    14
CTC2_L_00006026-01
1 46409U 26739GG  26037.47790509  .00000000  00000+0  00000-0 0  9998
2 46409  40.0000 300.0000 0000000   0.0000 300.0000 15.80155563    15
CTC2_L_00006026-02
1 46410U 25692CH  26037.47790509  .00000000  00000+0  00000-0 0  9997
2 46410  40.0000 300.0000 0000000   0.0000  30.0000 15.80155563    17
CTC2_L_00006026-03
1 46411U 25188YS  26037.47790509  .00000000  00000+0  00000-0 0  9998
2 46411  40.0000 300.0000 0000000   0.0000 120.0000 15.80155563    18
CTC2_L_00006026-04
1 46412U 23125WR  26037.47790509  .00000000  00000+0  00000-0 0  9998
2 46412  40.0000 300.0000 0000000   0.0000 210.0000 15.80155563    19
CTC2_L_00006027-01
1 46413U 22840GC  26037.47790509  .00000000  00000+0  00000-0 0  9992
2 46413  40.0000 312.0000 0000000   0.0000 312.0000 15.80155563    16
CTC2_L_00006027-02
1 46414U 25005OF  26037.47790509  .00000000  00000+0  00000-0 0  9999
2 46414  40.0000 312.0000 0000000   0.0000  42.0000 15.80155563    17
CTC2_L_00006027-03
1 46415U 25341O   26037.47790509  .00000000  00000+0  00000-0 0  9993
2 46415  40.0000 312.0000 0000000   0.0000 132.0000 15.80155563    18
CTC2_L_00006027-04
1 46416U 25438ER  26037.47790509  .00000000  00000+0  00000-0 0  9991
2 46416  40.0000 312.0000 0000000   0.0000 222.0000 15.80155563    19
CTC2_L_00006028-01
1 46417U 23926NB  26037.47790509  .00000000  00000+0  00000-0 0  9992
2 46417  40.0000 324.0000 0000000   0.0000 324.0000 15.80155563    16
CTC2_L_00006028-02
1 46418U 25551VW  26037.47790509  .00000000  00000+0  00000-0 0  9999
2 46418  40.0000 324.0000 0000000   0.0000  54.0000 15.80155563    17
CTC2_L_00006028-03
1 46419U 23564MM  26037.47790509  .00000000  00000+0  00000-0 0  9992
2 46419  40.0000 324.0000 0000000   0.0000 144.0000 15.80155563    18
CTC2_L_00006028-04
1 46420U 24289B   26037.47790509  .00000000  00000+0  00000-0 0  9999
2 46420  40.0000 324.0000 0000000   0.0000 234.0000 15.80155563    10
CTC2_L_00006029-01
1 46421U 22348YT  26037.47790509  .00000000  00000+0  00000-0 0  9994
2 46421  40.0000 336.0000 0000000   0.0000 336.0000 15.80155563    17
CTC2_L_00006029-02
1 46422U 22161IE  26037.47790509  .00000000  00000+0  00000-0 0  9998
2 46422  40.0000 336.0000 0000000   0.0000  66.0000 15.80155563    18
CTC2_L_00006029-03
1 46423U 22950J   26037.47790509  .00000000  00000+0  00000-0 0  9995
2 46423  40.0000 336.0000 0000000   0.0000 156.0000 15.80155563    19
CTC2_L_00006029-04
1 46424U 26019AQ  26037.47790509  .00000000  00000+0  00000-0 0  9996
2 46424  40.0000 336.0000 0000000   0.0000 246.0000 15.80155563    10
CTC2_L_00006030-01
1 46425U 26527GC  26037.47790509  .00000000  00000+0  00000-0 0  9991
2 46425  40.0000 348.0000 0000000   0.0000 348.0000 15.80155563    17
CTC2_L_00006030-02
1 46426U 25647EH  26037.47790509  .00000000  00000+0  00000-0 0  9994
2 46426  40.0000 348.0000 0000000   0.0000  78.0000 15.80155563    18
CTC2_L_00006030-03
1 46427U 24774WH  26037.47790509  .00000000  00000+0  00000-0 0  9995
2 46427  40.0000 348.0000 0000000   0.0000 168.0000 15.80155563    19
CTC2_L_00006030-04
1 46428U 23778PN  26037.47790509  .00000000  00000+0  00000-0 0  9999
2 46428  40.0000 348.0000 0000000   0.0000 258.0000 15.80155563    10
